[{"OBJECT_NAME":"IRIDIUM 139","OBJECT_ID":"2017-061J","EPOCH":"2026-03-09T23:30:10.706112","MEAN_MOTION":14.34217511,"ECCENTRICITY":0.00020273,"INCLINATION":86.3918,"RA_OF_ASC_NODE":66.7885,"ARG_OF_PERICENTER":90.2934,"MEAN_ANOMALY":269.8494,"EPHEMERIS_TYPE":0,"CLASSIFICATION_TYPE":"U","NORAD_CAT_ID":42963,"ELEMENT_SET_NO":999,"REV_AT_EPOCH":44062,"BSTAR":-3.48826e-7,"MEAN_MOTION_DOT":1.9e-7,"MEAN_MOTION_DDOT":0},{"OBJECT_NAME":"ARIANE 40 R\/B","OBJECT_ID":"1993-061H","EPOCH":"2026-03-09T18:26:30.161760","MEAN_MOTION":14.32860991,"ECCENTRICITY":0.0009538,"INCLINATION":98.4915,"RA_OF_ASC_NODE":137.6545,"ARG_OF_PERICENTER":284.8597,"MEAN_ANOMALY":75.1531,"EPHEMERIS_TYPE":0,"CLASSIFICATION_TYPE":"U","NORAD_CAT_ID":22830,"ELEMENT_SET_NO":999,"REV_AT_EPOCH":69411,"BSTAR":0.00010373604,"MEAN_MOTION_DOT":2.4e-6,"MEAN_MOTION_DDOT":0}]
